{"type": "FeatureCollection", "features": [ {"type": "Feature", "properties": {"norad_id": 66880, "name": "STARLINK-35844", "group": "last-30-days", "lat": -30.704826229456636, "lon": -23.892046880171385, "alt_km": 410.41176721577176, "timestamp": "2025-12-27T02:10:14.908626+00:00", "meta": {"OBJECT_NAME": "STARLINK-35844", "OBJECT_ID": "2025-283C", "EPOCH": "2025-12-26T20:00:01.999008", "MEAN_MOTION": 15.54845357, "ECCENTRICITY": 0.0001211, "INCLINATION": 53.1595, "RA_OF_ASC_NODE": 3.7859, "ARG_OF_PERICENTER": 99.0765, "MEAN_ANOMALY": 221.9943, "EPHEMERIS_TYPE": 0, "CLASSIFICATION_TYPE": "U", "NORAD_CAT_ID": 66880, "ELEMENT_SET_NO": 999, "REV_AT_EPOCH": 469, "BSTAR": -0.033008, "MEAN_MOTION_DOT": -0.02004075, "MEAN_MOTION_DDOT": 0}, "tle": {"line1": "1 66880U 25283C   25360.83335647 -.02004075  00000+0 -33008-1 0  9997", "line2": "2 66880  53.1595   3.7859 0001211  99.0765 221.9943 15.54845357  4697"}}, "geometry": {"type": "Point", "coordinates": [-23.892046880171385, -30.704826229456636]}}, {"type": "Feature", "properties": {"norad_id": 66881, "name": "STARLINK-35860", "group": "last-30-days", "lat": -27.928623623461505, "lon": -20.880761156245253, "alt_km": 410.18767710834527, "timestamp": "2025-12-27T02:10:14.908641+00:00", "meta": {"OBJECT_NAME": "STARLINK-35860", "OBJECT_ID": "2025-283D", "EPOCH": "2025-12-26T20:00:01.999008", "MEAN_MOTION": 15.5484214, "ECCENTRICITY": 0.0001258, "INCLINATION": 53.1593, "RA_OF_ASC_NODE": 3.7768, "ARG_OF_PERICENTER": 96.5073, "MEAN_ANOMALY": 228.3964, "EPHEMERIS_TYPE": 0, "CLASSIFICATION_TYPE": "U", "NORAD_CAT_ID": 66881, "ELEMENT_SET_NO": 999, "REV_AT_EPOCH": 469, "BSTAR": -0.032901, "MEAN_MOTION_DOT": -0.019981, "MEAN_MOTION_DDOT": 0}, "tle": {"line1": "1 66881U 25283D   25360.83335647 -.01998100  00000+0 -32901-1 0  9999", "line2": "2 66881  53.1593   3.7768 0001258  96.5073 228.3964 15.54842140  4691"}}, "geometry": {"type": "Point", "coordinates": [-20.880761156245253, -27.928623623461505]}}, {"type": "Feature", "properties": {"norad_id": 66882, "name": "STARLINK-35912", "group": "last-30-days", "lat": -26.51330519525269, "lon": -19.42943885433869, "alt_km": 410.07682822907736, "timestamp": "2025-12-27T02:10:14.908652+00:00", "meta": {"OBJECT_NAME": "STARLINK-35912", "OBJECT_ID": "2025-283E", "EPOCH": "2025-12-26T20:00:01.999008", "MEAN_MOTION": 15.54846345, "ECCENTRICITY": 0.0001237, "INCLINATION": 53.1595, "RA_OF_ASC_NODE": 3.7733, "ARG_OF_PERICENTER": 98.1172, "MEAN_ANOMALY": 228.7045, "EPHEMERIS_TYPE": 0, "CLASSIFICATION_TYPE": "U", "NORAD_CAT_ID": 66882, "ELEMENT_SET_NO": 999, "REV_AT_EPOCH": 469, "BSTAR": -0.033067, "MEAN_MOTION_DOT": -0.02007415, "MEAN_MOTION_DDOT": 0}, "tle": {"line1": "1 66882U 25283E   25360.83335647 -.02007415  00000+0 -33067-1 0  9995", "line2": "2 66882  53.1595   3.7733 0001237  98.1172 228.7045 15.54846345  4696"}}, "geometry": {"type": "Point", "coordinates": [-19.42943885433869, -26.51330519525269]}}, {"type": "Feature", "properties": {"norad_id": 66883, "name": "STARLINK-35947", "group": "last-30-days", "lat": -25.084491056732393, "lon": -18.014149575024756, "alt_km": 409.99950777151207, "timestamp": "2025-12-27T02:10:14.908662+00:00", "meta": {"OBJECT_NAME": "STARLINK-35947", "OBJECT_ID": "2025-283F", "EPOCH": "2025-12-26T20:00:01.999008", "MEAN_MOTION": 15.5484907, "ECCENTRICITY": 0.0001237, "INCLINATION": 53.1599, "RA_OF_ASC_NODE": 3.7701, "ARG_OF_PERICENTER": 103.2508, "MEAN_ANOMALY": 225.4873, "EPHEMERIS_TYPE": 0, "CLASSIFICATION_TYPE": "U", "NORAD_CAT_ID": 66883, "ELEMENT_SET_NO": 999, "REV_AT_EPOCH": 474, "BSTAR": -0.033146, "MEAN_MOTION_DOT": -0.02011874, "MEAN_MOTION_DDOT": 0}, "tle": {"line1": "1 66883U 25283F   25360.83335647 -.02011874  00000+0 -33146-1 0  9998", "line2": "2 66883  53.1599   3.7701 0001237 103.2508 225.4873 15.54849070  4744"}}, "geometry": {"type": "Point", "coordinates": [-18.014149575024756, -25.084491056732393]}}, {"type": "Feature", "properties": {"norad_id": 66884, "name": "STARLINK-36057", "group": "last-30-days", "lat": -22.18884107024449, "lon": -15.283836061805735, "alt_km": 409.59939532243334, "timestamp": "2025-12-27T02:10:14.908674+00:00", "meta": {"OBJECT_NAME": "STARLINK-36057", "OBJECT_ID": "2025-283G", "EPOCH": "2025-12-26T20:00:01.999008", "MEAN_MOTION": 15.5484874, "ECCENTRICITY": 0.0001003, "INCLINATION": 53.1595, "RA_OF_ASC_NODE": 3.7608, "ARG_OF_PERICENTER": 100.8241, "MEAN_ANOMALY": 231.7473, "EPHEMERIS_TYPE": 0, "CLASSIFICATION_TYPE": "U", "NORAD_CAT_ID": 66884, "ELEMENT_SET_NO": 999, "REV_AT_EPOCH": 469, "BSTAR": -0.033108, "MEAN_MOTION_DOT": -0.02009641, "MEAN_MOTION_DDOT": 0}, "tle": {"line1": "1 66884U 25283G   25360.83335647 -.02009641  00000+0 -33108-1 0  9996", "line2": "2 66884  53.1595   3.7608 0001003 100.8241 231.7473 15.54848740  4698"}}, "geometry": {"type": "Point", "coordinates": [-15.283836061805735, -22.18884107024449]}}, {"type": "Feature", "properties": {"norad_id": 66885, "name": "STARLINK-35954", "group": "last-30-days", "lat": -23.643619446719747, "lon": -16.6345556256427, "alt_km": 409.73788615597005, "timestamp": "2025-12-27T02:10:14.908686+00:00", "meta": {"OBJECT_NAME": "STARLINK-35954", "OBJECT_ID": "2025-283H", "EPOCH": "2025-12-26T20:00:01.999008", "MEAN_MOTION": 15.54844856, "ECCENTRICITY": 0.000109, "INCLINATION": 53.1596, "RA_OF_ASC_NODE": 3.7657, "ARG_OF_PERICENTER": 96.5701, "MEAN_ANOMALY": 234.0857, "EPHEMERIS_TYPE": 0, "CLASSIFICATION_TYPE": "U", "NORAD_CAT_ID": 66885, "ELEMENT_SET_NO": 999, "REV_AT_EPOCH": 469, "BSTAR": -0.033009, "MEAN_MOTION_DOT": -0.02004041, "MEAN_MOTION_DDOT": 0}, "tle": {"line1": "1 66885U 25283H   25360.83335647 -.02004041  00000+0 -33009-1 0  9996", "line2": "2 66885  53.1596   3.7657 0001090  96.5701 234.0857 15.54844856  4698"}}, "geometry": {"type": "Point", "coordinates": [-16.6345556256427, -23.643619446719747]}}, {"type": "Feature", "properties": {"norad_id": 66886, "name": "STARLINK-35900", "group": "last-30-days", "lat": -20.726347977174804, "lon": -13.96292850925567, "alt_km": 409.4765997523291, "timestamp": "2025-12-27T02:10:14.908696+00:00", "meta": {"OBJECT_NAME": "STARLINK-35900", "OBJECT_ID": "2025-283J", "EPOCH": "2025-12-26T20:00:01.999008", "MEAN_MOTION": 15.54846114, "ECCENTRICITY": 0.0001113, "INCLINATION": 53.1597, "RA_OF_ASC_NODE": 3.7567, "ARG_OF_PERICENTER": 97.6179, "MEAN_ANOMALY": 236.8708, "EPHEMERIS_TYPE": 0, "CLASSIFICATION_TYPE": "U", "NORAD_CAT_ID": 66886, "ELEMENT_SET_NO": 999, "REV_AT_EPOCH": 469, "BSTAR": -0.03304, "MEAN_MOTION_DOT": -0.02005809, "MEAN_MOTION_DDOT": 0}, "tle": {"line1": "1 66886U 25283J   25360.83335647 -.02005809  00000+0 -33040-1 0  9995", "line2": "2 66886  53.1597   3.7567 0001113  97.6179 236.8708 15.54846114  4691"}}, "geometry": {"type": "Point", "coordinates": [-13.96292850925567, -20.726347977174804]}}, {"type": "Feature", "properties": {"norad_id": 66887, "name": "STARLINK-35925", "group": "last-30-days", "lat": -19.25092545700896, "lon": -12.664718412944495, "alt_km": 409.33708482551083, "timestamp": "2025-12-27T02:10:14.908706+00:00", "meta": {"OBJECT_NAME": "STARLINK-35925", "OBJECT_ID": "2025-283K", "EPOCH": "2025-12-26T20:00:01.999008", "MEAN_MOTION": 15.54847199, "ECCENTRICITY": 0.0001109, "INCLINATION": 53.1595, "RA_OF_ASC_NODE": 3.753, "ARG_OF_PERICENTER": 98.6898, "MEAN_ANOMALY": 237.7166, "EPHEMERIS_TYPE": 0, "CLASSIFICATION_TYPE": "U", "NORAD_CAT_ID": 66887, "ELEMENT_SET_NO": 999, "REV_AT_EPOCH": 469, "BSTAR": -0.033083, "MEAN_MOTION_DOT": -0.0200824, "MEAN_MOTION_DDOT": 0}, "tle": {"line1": "1 66887U 25283K   25360.83335647 -.02008240  00000+0 -33083-1 0  9995", "line2": "2 66887  53.1595   3.7530 0001109  98.6898 237.7166 15.54847199  4696"}}, "geometry": {"type": "Point", "coordinates": [-12.664718412944495, -19.25092545700896]}}, {"type": "Feature", "properties": {"norad_id": 66888, "name": "STARLINK-35919", "group": "last-30-days", "lat": -17.769124542296012, "lon": -11.392537002802854, "alt_km": 409.1724720094844, "timestamp": "2025-12-27T02:10:14.908716+00:00", "meta": {"OBJECT_NAME": "STARLINK-35919", "OBJECT_ID": "2025-283L", "EPOCH": "2025-12-26T20:00:01.999008", "MEAN_MOTION": 15.54849693, "ECCENTRICITY": 0.0001149, "INCLINATION": 53.1595, "RA_OF_ASC_NODE": 3.7487, "ARG_OF_PERICENTER": 96.7076, "MEAN_ANOMALY": 241.6124, "EPHEMERIS_TYPE": 0, "CLASSIFICATION_TYPE": "U", "NORAD_CAT_ID": 66888, "ELEMENT_SET_NO": 999, "REV_AT_EPOCH": 469, "BSTAR": -0.033119, "MEAN_MOTION_DOT": -0.02010369, "MEAN_MOTION_DDOT": 0}, "tle": {"line1": "1 66888U 25283L   25360.83335647 -.02010369  00000+0 -33119-1 0  9991", "line2": "2 66888  53.1595   3.7487 0001149  96.7076 241.6124 15.54849693  4698"}}, "geometry": {"type": "Point", "coordinates": [-11.392537002802854, -17.769124542296012]}}, {"type": "Feature", "properties": {"norad_id": 66889, "name": "STARLINK-35852", "group": "last-30-days", "lat": -16.27607665038997, "lon": -10.139249880553553, "alt_km": 408.9590152272831, "timestamp": "2025-12-27T02:10:14.908726+00:00", "meta": {"OBJECT_NAME": "STARLINK-35852", "OBJECT_ID": "2025-283M", "EPOCH": "2025-12-26T20:00:01.999008", "MEAN_MOTION": 15.54854058, "ECCENTRICITY": 0.0001136, "INCLINATION": 53.1596, "RA_OF_ASC_NODE": 3.7439, "ARG_OF_PERICENTER": 91.9742, "MEAN_ANOMALY": 248.2634, "EPHEMERIS_TYPE": 0, "CLASSIFICATION_TYPE": "U", "NORAD_CAT_ID": 66889, "ELEMENT_SET_NO": 999, "REV_AT_EPOCH": 469, "BSTAR": -0.03329, "MEAN_MOTION_DOT": -0.02019967, "MEAN_MOTION_DDOT": 0}, "tle": {"line1": "1 66889U 25283M   25360.83335647 -.02019967  00000+0 -33290-1 0  9995", "line2": "2 66889  53.1596   3.7439 0001136  91.9742 248.2634 15.54854058  4690"}}, "geometry": {"type": "Point", "coordinates": [-10.139249880553553, -16.27607665038997]}}]}